STARLINK-11617 [DTC]    
1 63184U 25048B   26189.65752215  .00194642  00000+0  14722-2 0  9993
2 63184  42.9937 310.9766 0001880 170.8449 189.2453 15.71047227 77541
STARLINK-11618 [DTC]    
1 63185U 25048C   26190.32503078  .00191336  00000+0  14420-2 0  9993
2 63185  43.0012 306.5085 0002916 297.4255  62.6316 15.71141927 77640
STARLINK-11646 [DTC]    
1 63186U 25048D   26190.31441918  .00149404  00000+0  11352-2 0  9997
2 63186  43.0018 306.4216 0002890 276.2415  83.8124 15.71084757 77656
STARLINK-11622 [DTC]    
1 63187U 25048E   26189.35024993  .00064896  00000+0  50437-3 0  9999
2 63187  43.0000 312.9801 0002352 281.1011  78.9592 15.70882478 77491
STARLINK-11642 [DTC]    
1 63188U 25048F   26189.39259546  .00144953  00000+0  11130-2 0  9997
2 63188  42.9992 312.4242 0002771 285.3343  74.7218 15.70850352 77500
STARLINK-11639 [DTC]    
1 63189U 25048G   26189.63630418  .00133963  00000+0  10290-2 0  9991
2 63189  42.9987 310.8046 0001465 265.5315  94.5385 15.70881181 77540
STARLINK-11637 [DTC]    
1 63190U 25048H   26189.79623646  .00134406  00000+0  10308-2 0  9998
2 63190  42.9993 310.3044 0003263 302.0576  57.9974 15.70912651 77562
STARLINK-11647 [DTC]    
1 63191U 25048J   26190.33040490  .00161706  00000+0  12346-2 0  9998
2 63191  42.9988 306.5438 0001712 254.6774 105.3904 15.70930513 77658
STARLINK-11643 [DTC]    
1 63192U 25048K   26190.27744379  .00177449  00000+0  13506-2 0  9999
2 63192  42.9989 307.0154 0002179 299.8285  60.2366 15.70952833 77646
STARLINK-11635 [DTC]    
1 63193U 25048L   26190.31973151  .00145921  00000+0  11095-2 0  9998
2 63193  43.0028 306.4628 0003636 294.8898  65.1592 15.71077177 77652
STARLINK-11636 [DTC]    
1 63194U 25048M   26189.39790369  .00192083  00000+0  14567-2 0  9991
2 63194  42.9997 312.4646 0002925 270.7714  89.2818 15.70991632 77505
STARLINK-11631 [DTC]    
1 63195U 25048N   26189.48272229  .00149835  00000+0  11436-2 0  9991
2 63195  42.9987 312.2518 0002167 235.3274 124.7389 15.70977970 77515
STARLINK-32946          
1 63196U 25048P   26190.22505382  .00012779  00000+0  47255-3 0  9990
2 63196  42.9966 122.9608 0001237 265.6107  94.4603 15.27616549 75634
STARLINK-32960          
1 63197U 25048Q   26189.93829865  .00011272  00000+0  41818-3 0  9998
2 63197  43.0029 120.7382 0001525 268.5500  91.5177 15.27607038 75638
STARLINK-32904          
1 63198U 25048R   26190.16128475  .00012739  00000+0  47149-3 0  9997
2 63198  42.9981 118.9638 0001214 276.1100  83.9613 15.27591650 75679
STARLINK-32931          
1 63199U 25048S   26190.18570042  .00013820  00000+0  51025-3 0  9991
2 63199  43.0013 119.1538 0000776 271.8389  88.2374 15.27614146 75671
STARLINK-32934          
1 63200U 25048T   26190.16771806 -.00000768  00000+0 -18382-4 0  9992
2 63200  42.9988 119.0134 0001141 279.5865  80.4857 15.27585988 75676
STARLINK-32938          
1 63201U 25048U   26190.18955088  .00011864  00000+0  43946-3 0  9991
2 63201  43.0032 119.1809 0001598 255.2273 104.8402 15.27616959 75679
STARLINK-32935          
1 63202U 25048V   26190.27678002  .00012707  00000+0  47018-3 0  9991
2 63202  43.0004 118.9788 0001646 269.7469  90.3194 15.27601547 75688
STARLINK-32930          
1 63203U 25048W   26189.94597334  .00021968  00000+0  80368-3 0  9996
2 63203  42.9991 120.7909 0001462 296.0543  64.0158 15.27651658 75631
STARLINK-11654 [DTC]    
1 63265U 25053A   26190.15740836  .00158931  00000+0  12172-2 0  9990
2 63265  42.9982 100.0262 0001173 281.3800  78.6936 15.70865996 76775
STARLINK-11659 [DTC]    
1 63266U 25053B   26190.15209597  .00121293  00000+0  93339-3 0  9991
2 63266  42.9987  99.9817 0001457 267.9671  92.1030 15.70881815 76778
STARLINK-11653 [DTC]    
1 63267U 25053C   26189.47923278  .00127710  00000+0  98195-3 0  9999
2 63267  43.0039 104.4088 0002667 269.6495  90.4067 15.70877002 76660
STARLINK-11641 [DTC]    
1 63268U 25053D   26189.11884347  .00121442  00000+0  93249-3 0  9995
2 63268  42.9998 105.9848 0003377 253.6515 106.3981 15.70929105 76617
STARLINK-11638 [DTC]    
1 63269U 25053E   26190.07788694  .00105340  00000+0  81449-3 0  9999
2 63269  43.0009 100.2792 0002069 262.6632  97.4000 15.70826720 76763
STARLINK-11614 [DTC]    
1 63270U 25053F   26190.10974683  .00143426  00000+0  10977-2 0  9994
2 63270  42.9981 100.5366 0003035 254.9064 105.1468 15.70931940 76765
STARLINK-11620 [DTC]    
1 63271U 25053G   26190.12567879  .00112498  00000+0  86704-3 0  9999
2 63271  42.9989 100.6670 0001776 285.6525  74.4147 15.70877119 76765
STARLINK-11619 [DTC]    
1 63272U 25053H   26190.09912411  .00183402  00000+0  13943-2 0  9999
2 63272  42.9996 100.4500 0004077 248.3743 111.6691 15.70955873 76761
STARLINK-11621 [DTC]    
1 63273U 25053J   26190.13087112  .00200451  00000+0  15169-2 0  9992
2 63273  42.9940  99.8155 0001722   9.3032 350.7868 15.71018503 76772
