OBJECT_NAME,OBJECT_ID,EPOCH,MEAN_MOTION,ECCENTRICITY,INCLINATION,RA_OF_ASC_NODE,ARG_OF_PERICENTER,MEAN_ANOMALY,EPHEMERIS_TYPE,CLASSIFICATION_TYPE,NORAD_CAT_ID,ELEMENT_SET_NO,REV_AT_EPOCH,BSTAR,MEAN_MOTION_DOT,MEAN_MOTION_DDOT
STARLINK-11617 [DTC],2025-048B,2026-07-08T15:46:49.913760,15.71047227,.00018802,42.9937,310.9766,170.8449,189.2453,0,U,63184,999,7754,.14722485E-2,.194642E-2,0
STARLINK-11618 [DTC],2025-048C,2026-07-09T07:48:02.659392,15.71141927,.00029166,43.0012,306.5085,297.4255,62.6316,0,U,63185,999,7764,.14420304E-2,.191336E-2,0
STARLINK-11646 [DTC],2025-048D,2026-07-09T07:32:45.817152,15.71084757,.00028906,43.0018,306.4216,276.2415,83.8124,0,U,63186,999,7765,.1135183E-2,.149404E-2,0
STARLINK-11622 [DTC],2025-048E,2026-07-08T08:24:21.593952,15.70882478,.00023525,43.0000,312.9801,281.1011,78.9592,0,U,63187,999,7749,.50436722E-3,.64896E-3,0
STARLINK-11642 [DTC],2025-048F,2026-07-08T09:25:20.247744,15.70850352,.00027712,42.9992,312.4242,285.3343,74.7218,0,U,63188,999,7750,.11129663E-2,.144953E-2,0
STARLINK-11639 [DTC],2025-048G,2026-07-08T15:16:16.681152,15.70881181,.00014654,42.9987,310.8046,265.5315,94.5385,0,U,63189,999,7754,.10289771E-2,.133963E-2,0
STARLINK-11637 [DTC],2025-048H,2026-07-08T19:06:34.830144,15.70912651,.00032637,42.9993,310.3044,302.0576,57.9974,0,U,63190,999,7756,.10307891E-2,.134406E-2,0
STARLINK-11647 [DTC],2025-048J,2026-07-09T07:55:46.983360,15.70930513,.00017123,42.9988,306.5438,254.6774,105.3904,0,U,63191,999,7765,.12346329E-2,.161706E-2,0
STARLINK-11643 [DTC],2025-048K,2026-07-09T06:39:31.143456,15.70952833,.00021799,42.9989,307.0154,299.8285,60.2366,0,U,63192,999,7764,.13506242E-2,.177449E-2,0
STARLINK-11635 [DTC],2025-048L,2026-07-09T07:40:24.802464,15.71077177,.0003636,43.0028,306.4628,294.8898,65.1592,0,U,63193,999,7765,.11095029E-2,.145921E-2,0
STARLINK-11636 [DTC],2025-048M,2026-07-08T09:32:58.878816,15.70991632,.00029252,42.9997,312.4646,270.7714,89.2818,0,U,63194,999,7750,.1456676E-2,.192083E-2,0
STARLINK-11631 [DTC],2025-048N,2026-07-08T11:35:07.205856,15.70977970,.00021679,42.9987,312.2518,235.3274,124.7389,0,U,63195,999,7751,.11435826E-2,.149835E-2,0
STARLINK-32946,2025-048P,2026-07-09T05:24:04.650048,15.27616549,.00012373,42.9966,122.9608,265.6107,94.4603,0,U,63196,999,7563,.47254849E-3,.12779E-3,0
STARLINK-32960,2025-048Q,2026-07-08T22:31:09.003360,15.27607038,.00015253,43.0029,120.7382,268.5500,91.5177,0,U,63197,999,7563,.41818444E-3,.11272E-3,0
STARLINK-32904,2025-048R,2026-07-09T03:52:15.002400,15.27591650,.00012148,42.9981,118.9638,276.1100,83.9613,0,U,63198,999,7567,.47148972E-3,.12739E-3,0
STARLINK-32931,2025-048S,2026-07-09T04:27:24.516288,15.27614146,.00007766,43.0013,119.1538,271.8389,88.2374,0,U,63199,999,7567,.51025022E-3,.1382E-3,0
STARLINK-32934,2025-048T,2026-07-09T04:01:30.840384,15.27585988,.00011413,42.9988,119.0134,279.5865,80.4857,0,U,63200,999,7567,-.1838169E-4,-.768E-5,0
STARLINK-32938,2025-048U,2026-07-09T04:32:57.196032,15.27616959,.00015988,43.0032,119.1809,255.2273,104.8402,0,U,63201,999,7567,.43946258E-3,.11864E-3,0
STARLINK-32935,2025-048V,2026-07-09T06:38:33.793728,15.27601547,.00016468,43.0004,118.9788,269.7469,90.3194,0,U,63202,999,7568,.47018089E-3,.12707E-3,0
STARLINK-32930,2025-048W,2026-07-08T22:42:12.096576,15.27651658,.0001462,42.9991,120.7909,296.0543,64.0158,0,U,63203,999,7563,.80368286E-3,.21968E-3,0
STARLINK-11654 [DTC],2025-053A,2026-07-09T03:46:40.082304,15.70865996,.00011736,42.9982,100.0262,281.3800,78.6936,0,U,63265,999,7677,.12172149E-2,.158931E-2,0
STARLINK-11659 [DTC],2025-053B,2026-07-09T03:39:01.091808,15.70881815,.00014574,42.9987,99.9817,267.9671,92.1030,0,U,63266,999,7677,.93338851E-3,.121293E-2,0
STARLINK-11653 [DTC],2025-053C,2026-07-08T11:30:05.712192,15.70877002,.00026676,43.0039,104.4088,269.6495,90.4067,0,U,63267,999,7666,.98194518E-3,.12771E-2,0
STARLINK-11641 [DTC],2025-053D,2026-07-08T02:51:08.075808,15.70929105,.00033777,42.9998,105.9848,253.6515,106.3981,0,U,63268,999,7661,.93249115E-3,.121442E-2,0
STARLINK-11638 [DTC],2025-053E,2026-07-09T01:52:09.431616,15.70826720,.00020697,43.0009,100.2792,262.6632,97.4000,0,U,63269,999,7676,.81449095E-3,.10534E-2,0
STARLINK-11614 [DTC],2025-053F,2026-07-09T02:38:02.126112,15.70931940,.00030358,42.9981,100.5366,254.9064,105.1468,0,U,63270,999,7676,.10976847E-2,.143426E-2,0
STARLINK-11620 [DTC],2025-053G,2026-07-09T03:00:58.647456,15.70877119,.00017762,42.9989,100.6670,285.6525,74.4147,0,U,63271,999,7676,.86703531E-3,.112498E-2,0
STARLINK-11619 [DTC],2025-053H,2026-07-09T02:22:44.323104,15.70955873,.00040771,42.9996,100.4500,248.3743,111.6691,0,U,63272,999,7676,.13943172E-2,.183402E-2,0
STARLINK-11621 [DTC],2025-053J,2026-07-09T03:08:27.264768,15.71018503,.00017223,42.9940,99.8155,9.3032,350.7868,0,U,63273,999,7677,.15168609E-2,.200451E-2,0
